{"type":"FeatureCollection","name":"Terras Indígenas no Estado de SP","features":[{"type":"Feature","id":"terras-indigenas-001","properties":{"id":"terras-indigenas-001","nome":"Pindoty/Araçá-Mirim","nome_origem":"Pindoty/Ara R-Mirim","natureza":"camada fornecida para a demonstração","fonte_arquivo":"assets/layers/tis_poligonais/tis_poligonais_clipped.kml","terra_indigena":"Pindoty/Araçá-Mirim","etnia":"Guarani Mbya","municipios":"Pariquera-Açu,Cananéia","superficie_ha":1030,"fase":"Declarada","modalidade":"Tradicionalmente ocupada","data_atualizacao":"21/06/2017"},"geometry":{"type":"Polygon","coordinates":[[[-47.85203193699994,-24.76842621828152],[-47.85042608699996,-24.77055021328151],[-47.84554790599998,-24.76712822228154],[-47.83965302899998,-24.76611171728156],[-47.83823052799995,-24.76814199228156],[-47.83723945999998,-24.76720046228154],[-47.83762169799997,-24.7689626392815],[-47.83547066499995,-24.77059018928149],[-47.83520416499994,-24.76791734128158],[-47.83164925099993,-24.76764608228153],[-47.83566387699994,-24.76393198228164],[-47.83497145399997,-24.76163699128171],[-47.83273713999995,-24.76165840728169],[-47.83317258199997,-24.76290048628167],[-47.83222317599996,-24.76225089328169],[-47.83062132299995,-24.76413637728161],[-47.82907467299998,-24.76295854428164],[-47.82912226299993,-24.76132861428171],[-47.82628589299998,-24.76563692428162],[-47.82443477899994,-24.76020775628169],[-47.82709807299995,-24.75703532228179],[-47.83644164499998,-24.75338043528183],[-47.83367053399997,-24.74709995528198],[-47.84019079499996,-24.74525513828202],[-47.84400675999996,-24.74245575428212],[-47.85414873599996,-24.74377802028207],[-47.86037309599993,-24.74186840528214],[-47.86636628699995,-24.74375414228205],[-47.86743015899998,-24.74643765428202],[-47.86686265499998,-24.75330740528188],[-47.87287119099994,-24.75372346328186],[-47.87332761399995,-24.76208907228168],[-47.87426526799993,-24.76392873728163],[-47.87598789899994,-24.76388054828165],[-47.87589437899993,-24.76598470928158],[-47.86182994599995,-24.7651811642816],[-47.85561228999996,-24.76767279628153],[-47.85235009799992,-24.76732539328157],[-47.85203193699994,-24.76842621828152]]]}},{"type":"Feature","id":"terras-indigenas-002","properties":{"id":"terras-indigenas-002","nome":"Jaraguá","nome_origem":"Jaragu2","natureza":"camada fornecida para a demonstração","fonte_arquivo":"assets/layers/tis_poligonais/tis_poligonais_clipped.kml","terra_indigena":"Jaraguá","etnia":"Guaran2","municipios":"Suo Paulo,Osasco","superficie_ha":1.7566,"fase":"Regularizada","modalidade":"Tradicionalmente ocupada","data_atualizacao":"12/02/2026"},"geometry":{"type":"MultiPolygon","coordinates":[[[[-46.75370887299994,-23.46390364931015],[-46.75379856599994,-23.46389634631013],[-46.75387338099995,-23.46390604331013],[-46.75396940599995,-23.46394681731014],[-46.75406829599996,-23.46399319431013],[-46.75416804199995,-23.46404146631015],[-46.75424472999998,-23.46406923831015],[-46.75431356599995,-23.46409245531012],[-46.75452453599996,-23.46415600031011],[-46.75481663499994,-23.46423815531014],[-46.75474334699993,-23.46425880131014],[-46.75461941899994,-23.46466777431012],[-46.75453262999997,-23.46482815731009],[-46.75451885099994,-23.46513416731013],[-46.75459414299996,-23.46534866831013],[-46.75462594399994,-23.46541884331009],[-46.75458615799994,-23.46541847831009],[-46.75441502899998,-23.46536554631012],[-46.75412562799994,-23.4652655353101],[-46.75417354499996,-23.46483688431011],[-46.75366346199996,-23.46465158331014],[-46.75328023799995,-23.46450920831015],[-46.75331562299993,-23.46439205331015],[-46.75338831199997,-23.46419119431014],[-46.75343075499995,-23.46412757831015],[-46.75348146899995,-23.46407859031016],[-46.75352470599996,-23.46403725131015],[-46.75360148999994,-23.46397006331015],[-46.75365223599994,-23.46393022031013],[-46.75370887299994,-23.46390364931015]]],[[[-46.75396433899994,-23.46381896431016],[-46.75418934199996,-23.46316329331016],[-46.75426252999995,-23.46317805531014],[-46.75435928499996,-23.46320289231016],[-46.75455634899999,-23.46323801431015],[-46.75469166799996,-23.46325823531014],[-46.75468573499995,-23.46345214131013],[-46.75468542599998,-23.46355163631015],[-46.75478260199998,-23.46357431931015],[-46.75484151999996,-23.46359585131016],[-46.75484144799998,-23.46371924731015],[-46.75479595699994,-23.46376181231015],[-46.75474442299998,-23.46381832431016],[-46.75473398999998,-23.46398788931013],[-46.75473805299998,-23.46406945731016],[-46.75453547999996,-23.46404568431015],[-46.75423782199994,-23.46395392031012],[-46.75422436999997,-23.46395074931015],[-46.75413392899998,-23.46391407531016],[-46.75399972599995,-23.46385015331013],[-46.75396433899994,-23.46381896431016]]]]}},{"type":"Feature","id":"terras-indigenas-003","properties":{"id":"terras-indigenas-003","nome":"Guarani da Barragem","nome_origem":"Guarani da Barragem","natureza":"camada fornecida para a demonstração","fonte_arquivo":"assets/layers/tis_poligonais/tis_poligonais_clipped.kml","terra_indigena":"Guarani da Barragem","etnia":"Guarani Kaiowr","municipios":"Suo Paulo","superficie_ha":26.3,"fase":"Regularizada","modalidade":"Tradicionalmente ocupada","data_atualizacao":"12/02/2026"},"geometry":{"type":"Polygon","coordinates":[[[-46.64783994699997,-23.86599533730116],[-46.65291987599994,-23.86708646430113],[-46.65278776999997,-23.87060207530106],[-46.64681656699997,-23.87128358830107],[-46.64783994699997,-23.86599533730116]]]}},{"type":"Feature","id":"terras-indigenas-004","properties":{"id":"terras-indigenas-004","nome":"Icatu","nome_origem":"Icatu","natureza":"camada fornecida para a demonstração","fonte_arquivo":"assets/layers/tis_poligonais/tis_poligonais_clipped.kml","terra_indigena":"Icatu","etnia":"Terena,Kaingang","municipios":"Braena","superficie_ha":300.9625,"fase":"Regularizada","modalidade":"Tradicionalmente ocupada","data_atualizacao":"28/08/2025"},"geometry":{"type":"Polygon","coordinates":[[[-50.30795688699993,-21.55697646535453],[-50.30835033799997,-21.55374944335458],[-50.31017888899999,-21.5541522213546],[-50.31433416599998,-21.55571749935453],[-50.31543509299996,-21.55806118735448],[-50.32563833099994,-21.55976189935445],[-50.32696119299993,-21.56140326735438],[-50.32057329199995,-21.56557541035429],[-50.31066039599995,-21.57692999935403],[-50.30444487399996,-21.57621804935407],[-50.30795688699993,-21.55697646535453]]]}},{"type":"Feature","id":"terras-indigenas-005","properties":{"id":"terras-indigenas-005","nome":"Guarani do RibeirNo Silveira","nome_origem":"Guarani do RibeirNo Silveira","natureza":"camada fornecida para a demonstração","fonte_arquivo":"assets/layers/tis_poligonais/tis_poligonais_clipped.kml","terra_indigena":"Guarani do RibeirNo Silveira","etnia":"Guarani","municipios":"Suo SebastiRo,Santos","superficie_ha":948.4,"fase":"Regularizada","modalidade":"Tradicionalmente ocupada","data_atualizacao":"26/04/2024"},"geometry":{"type":"Polygon","coordinates":[[[-45.81371388899998,-23.72722916630427],[-45.81923347199995,-23.73292802430414],[-45.81976629499997,-23.73974054930398],[-45.81754196899994,-23.74221014330392],[-45.81333435699997,-23.74155045730393],[-45.80971454199994,-23.74522101730384],[-45.80657445599996,-23.74546746530387],[-45.80052545499996,-23.74200716330394],[-45.79883395299998,-23.74284445630388],[-45.79570044499997,-23.73960522930395],[-45.78527659499997,-23.73699197730401],[-45.77883722199994,-23.73947333230399],[-45.77880304299998,-23.73734122530403],[-45.78171594799994,-23.73490708130407],[-45.78023435399996,-23.72844824130422],[-45.78348670199995,-23.72326530330432],[-45.77946624999998,-23.71475705930453],[-45.78347780899998,-23.71262846530457],[-45.78096169999998,-23.70970216530462],[-45.78120696699995,-23.70676740830471],[-45.78613769699996,-23.70839125130467],[-45.78727946099997,-23.70732983330469],[-45.79921301099995,-23.7205489243044],[-45.80543081299993,-23.72453817130431],[-45.81371388899998,-23.72722916630427]]]}},{"type":"Feature","id":"terras-indigenas-006","properties":{"id":"terras-indigenas-006","nome":"Peruíbe","nome_origem":"Peru6be","natureza":"camada fornecida para a demonstração","fonte_arquivo":"assets/layers/tis_poligonais/tis_poligonais_clipped.kml","terra_indigena":"Peruíbe","etnia":"Guarane","municipios":"Peruabe","superficie_ha":480.4737,"fase":"Regularizada","modalidade":"Tradicionalmente ocupada","data_atualizacao":"Não informada"},"geometry":{"type":"Polygon","coordinates":[[[-46.97018500999997,-24.1778674762943],[-46.99975644399996,-24.17768434629432],[-46.99994383799998,-24.19205773629401],[-46.97037936599997,-24.19241130029397],[-46.97018500999997,-24.1778674762943]]]}},{"type":"Feature","id":"terras-indigenas-007","properties":{"id":"terras-indigenas-007","nome":"Serra do Itatins","nome_origem":"Serra do Itatins","natureza":"camada fornecida para a demonstração","fonte_arquivo":"assets/layers/tis_poligonais/tis_poligonais_clipped.kml","terra_indigena":"Serra do Itatins","etnia":"Guarand","municipios":"Itariri","superficie_ha":1212.47,"fase":"Regularizada","modalidade":"Tradicionalmente ocupada","data_atualizacao":"18/08/2026"},"geometry":{"type":"Polygon","coordinates":[[[-47.07794449999994,-24.34512412929064],[-47.07561171999998,-24.34429944929066],[-47.09898051999994,-24.33170155929094],[-47.10667858999994,-24.34198706929074],[-47.11131047999999,-24.34535012929062],[-47.11821906999995,-24.34367632929066],[-47.12246231999995,-24.34416327929071],[-47.12269155999996,-24.34889186929056],[-47.12554288999996,-24.34816684929056],[-47.12523922999998,-24.34356580929071],[-47.12646320999994,-24.34313523929073],[-47.13525839999994,-24.34103077929078],[-47.14195638999996,-24.34279900929072],[-47.14455765999998,-24.3421130792907],[-47.14296567999997,-24.35074847929052],[-47.14490387999997,-24.35103331929052],[-47.14240289999998,-24.36460578929021],[-47.12770519999999,-24.36559702929021],[-47.12019772999997,-24.36428789929025],[-47.11698844699998,-24.35922783629033],[-47.11188479099997,-24.35629340129041],[-47.11194467799999,-24.35372493829048],[-47.10839806899997,-24.35139602029055],[-47.10310809999998,-24.35481620229042],[-47.10055294599994,-24.35488274229045],[-47.09052548999995,-24.35161568929052],[-47.08547354999996,-24.34781969929059],[-47.07794449999994,-24.34512412929064]]]}},{"type":"Feature","id":"terras-indigenas-008","properties":{"id":"terras-indigenas-008","nome":"Ka-aguy Mirim","nome_origem":"Ka-aguy Mirim","natureza":"camada fornecida para a demonstração","fonte_arquivo":"assets/layers/tis_poligonais/tis_poligonais_clipped.kml","terra_indigena":"Ka-aguy Mirim","etnia":"Guarani Mbya","municipios":"Miracatu e Pedro de Toledo","superficie_ha":1190,"fase":"Declarada","modalidade":"Tradicionalmente ocupada","data_atualizacao":"29/08/2016"},"geometry":{"type":"Polygon","coordinates":[[[-47.28634026699996,-24.27457600229217],[-47.28774476999997,-24.27181106329226],[-47.28942593399995,-24.27215759729227],[-47.28875543699996,-24.27377784929219],[-47.29140339499998,-24.27448796929217],[-47.29605904099998,-24.27100574129226],[-47.29823825799997,-24.27373951029224],[-47.30241175199995,-24.27037072729226],[-47.30509572399995,-24.27177632729223],[-47.30887343899997,-24.26993941529228],[-47.31194666299996,-24.27182628029225],[-47.31553487099996,-24.26661594329239],[-47.31825048199994,-24.26743397129233],[-47.31865949699995,-24.26312840229242],[-47.32208282999994,-24.26061235529252],[-47.33344748299999,-24.26280348229246],[-47.33497908399994,-24.2644076182924],[-47.33291564099994,-24.26696104629234],[-47.33525703099998,-24.27270982329223],[-47.33580675299999,-24.27799437329211],[-47.33419997299996,-24.28716680929194],[-47.32392143499993,-24.28745183129189],[-47.32500798499996,-24.29084550129186],[-47.32211228899997,-24.29187651229184],[-47.31518666799997,-24.2920837452918],[-47.31440338999995,-24.28945967329186],[-47.31263013999995,-24.29004721829187],[-47.31055133299998,-24.28887639229188],[-47.30578902599996,-24.29308073029182],[-47.29930379199993,-24.29149828529185],[-47.29782629499994,-24.29247157329178],[-47.29533626699998,-24.29067453929183],[-47.29274878799999,-24.29114751929185],[-47.29073037999996,-24.28622879829195],[-47.28405009299995,-24.28575193529193],[-47.28670903699999,-24.27743527329215],[-47.28634026699996,-24.27457600229217]]]}},{"type":"Feature","id":"terras-indigenas-009","properties":{"id":"terras-indigenas-009","nome":"Takuari","nome_origem":"Takuari","natureza":"camada fornecida para a demonstração","fonte_arquivo":"assets/layers/tis_poligonais/tis_poligonais_clipped.kml","terra_indigena":"Takuari","etnia":"Guarani","municipios":"Eldorado","superficie_ha":2190,"fase":"Encaminhada RI","modalidade":"Reserva Ind gena","data_atualizacao":"10/03/2023"},"geometry":{"type":"Polygon","coordinates":[[[-48.24749571999996,-24.51619442928693],[-48.25086609999994,-24.51895361928688],[-48.25242789999993,-24.52251539928685],[-48.24797045999998,-24.52733013928671],[-48.23889285999996,-24.52693978928673],[-48.23842394999997,-24.53045653928663],[-48.23333288999999,-24.54076312928643],[-48.23439678999995,-24.5423943892864],[-48.21979613999996,-24.54281330928635],[-48.21998169999994,-24.54511874928635],[-48.21862141999998,-24.54626927928629],[-48.22006787999994,-24.5504488392862],[-48.21744452999997,-24.55376125928611],[-48.21900898999996,-24.55564470928612],[-48.22218432999995,-24.55498449928609],[-48.22262042999996,-24.55630588928612],[-48.21810265999994,-24.55940062928604],[-48.21958311999998,-24.55987097928603],[-48.21423201999995,-24.56201163928599],[-48.21819079999995,-24.56414007928593],[-48.21604583999994,-24.56614161928586],[-48.20573820999994,-24.56916910928582],[-48.20124792999997,-24.56558446928591],[-48.19847774999994,-24.56646896928587],[-48.19771774999999,-24.54999754928622],[-48.20183128999997,-24.54318287928638],[-48.19929057999997,-24.54048453928645],[-48.19376011999997,-24.53850201928647],[-48.19299818999997,-24.53503676928656],[-48.18966585999993,-24.53132064928661],[-48.18819771999996,-24.52028320928686],[-48.19313904999996,-24.51738132928695],[-48.19582549999995,-24.51835676928692],[-48.20217349999996,-24.51728556928693],[-48.20433374999993,-24.51554967928694],[-48.21056989999994,-24.51677258928694],[-48.21579595999999,-24.51443486928698],[-48.22320969999998,-24.513635409287],[-48.23301730999998,-24.5095009292871],[-48.23682825999998,-24.5101166292871],[-48.24254366999998,-24.51475064928697],[-48.24749571999996,-24.51619442928693]]]}},{"type":"Feature","id":"terras-indigenas-010","properties":{"id":"terras-indigenas-010","nome":"Boa Vista SertGo do Promirim","nome_origem":"Boa Vista SertGo do Promirim","natureza":"camada fornecida para a demonstração","fonte_arquivo":"assets/layers/tis_poligonais/tis_poligonais_clipped.kml","terra_indigena":"Boa Vista SertGo do Promirim","etnia":"Guarans","municipios":"Ubatuba","superficie_ha":5420,"fase":"Delimitada","modalidade":"Tradicionalmente ocupada","data_atualizacao":"Não informada"},"geometry":{"type":"Polygon","coordinates":[[[-45.00908089099994,-23.31252402431356],[-45.01355041299996,-23.31056309731357],[-45.01919206999997,-23.31119931931358],[-45.02136619499998,-23.31325083031353],[-45.02073923999995,-23.31436099431351],[-45.02294124499998,-23.31768477231342],[-45.02130383999997,-23.32066411331336],[-45.02467254099997,-23.3277283853132],[-45.02390666799993,-23.33606472331305],[-45.02744202899999,-23.3450262273128],[-45.04161116899996,-23.34688673031274],[-45.04522492699993,-23.35024338631273],[-45.04468481999993,-23.35822659231256],[-45.03783046099995,-23.36784825831232],[-45.03214546199996,-23.36974602131226],[-45.03192972699998,-23.37639540131211],[-45.02813398599994,-23.380772985312],[-45.02778442199997,-23.38433461631196],[-45.02326694399994,-23.38865305131182],[-45.01991336099996,-23.39011865431183],[-45.01380053299994,-23.38906330831181],[-45.01180367899997,-23.38988969431182],[-45.00611894599996,-23.38787357831186],[-45.00299391099998,-23.38900262631184],[-44.99822052699994,-23.38756646931187],[-44.98274973399998,-23.38748899631184],[-44.98096663599995,-23.3867603923119],[-44.97988375599994,-23.38424539131195],[-44.97640027099993,-23.3843059023119],[-44.97238200299995,-23.38200801231199],[-44.97219996499996,-23.380224941312],[-44.97542896999995,-23.38058864031204],[-44.97615125399994,-23.37962721031204],[-44.97452817599998,-23.37914049031203],[-44.97304131999994,-23.37522366131212],[-44.97105348099996,-23.37505627431215],[-44.97060785999997,-23.3732581383122],[-44.96468260199998,-23.36947239231228],[-44.96013905499996,-23.36827233431232],[-44.95277145999995,-23.36896052331225],[-44.95309174799996,-23.36714361331229],[-44.95475793799994,-23.36771353731233],[-44.95536187799996,-23.36576066931232],[-44.95784066999995,-23.36562508031236],[-44.95827491799997,-23.36328646631242],[-44.95601990199998,-23.36000607331248],[-44.95065922099997,-23.35757734031255],[-44.95083478399993,-23.35286052031265],[-44.95368049599995,-23.35136727231266],[-44.95999551699998,-23.35172870031266],[-44.96125011999993,-23.34985776531271],[-44.96105939299997,-23.34662392631277],[-44.96293579399997,-23.3468386723128],[-44.96281712399997,-23.34886412831271],[-44.96719959699993,-23.34609765331278],[-44.96411415799997,-23.34191944331285],[-44.95940748799996,-23.34154286631287],[-44.96282219599993,-23.33311999331309],[-44.97165983299993,-23.32522407531324],[-44.98061957199997,-23.3228836113133],[-44.99397240499997,-23.31518866031352],[-45.00908089099994,-23.31252402431356]]]}},{"type":"Feature","id":"terras-indigenas-011","properties":{"id":"terras-indigenas-011","nome":"Tekoa Gwyra Pepo","nome_origem":"Tekoa Gwyra Pepo","natureza":"camada fornecida para a demonstração","fonte_arquivo":"assets/layers/tis_poligonais/tis_poligonais_clipped.kml","terra_indigena":"Tekoa Gwyra Pepo","etnia":"Guarani Mbya","municipios":"Tapirai","superficie_ha":330.0609,"fase":"Regularizada","modalidade":"Reserva Indagena","data_atualizacao":"02/04/2020"},"geometry":{"type":"MultiPolygon","coordinates":[[[[-47.54824499999996,-23.9409219992995],[-47.55066099999994,-23.94313299929944],[-47.55360299999996,-23.94291699929947],[-47.55468699999994,-23.94454299929942],[-47.56011499999995,-23.9459649992994],[-47.56216699999993,-23.95228599929926],[-47.56575899999995,-23.95428599929923],[-47.56382699999995,-23.95825099929913],[-47.56348199999996,-23.963454999299],[-47.55774099999996,-23.96362399929904],[-47.54824099999996,-23.95975599929911],[-47.54954299999998,-23.95605599929916],[-47.54637599999995,-23.94819399929935],[-47.54824499999996,-23.9409219992995]]],[[[-47.56069299999996,-23.94026199929952],[-47.56012299999998,-23.94581899929942],[-47.55480899999998,-23.94445099929943],[-47.55379899999997,-23.94292799929945],[-47.56069299999996,-23.94026199929952]]]]}},{"type":"Feature","id":"terras-indigenas-012","properties":{"id":"terras-indigenas-012","nome":"Krukutu","nome_origem":"Krukutu","natureza":"camada fornecida para a demonstração","fonte_arquivo":"assets/layers/tis_poligonais/tis_poligonais_clipped.kml","terra_indigena":"Krukutu","etnia":"Guaranu","municipios":"Suo Paulo","superficie_ha":25.88,"fase":"Regularizada","modalidade":"Tradicionalmente ocupada","data_atualizacao":"12/02/2026"},"geometry":{"type":"Polygon","coordinates":[[[-46.62118584099994,-23.86172068830129],[-46.62127919199997,-23.85996428530132],[-46.62298085399993,-23.85997046430129],[-46.62344456999995,-23.86447046830122],[-46.62077742199995,-23.86666517530117],[-46.61898371799998,-23.86662849930113],[-46.61765945299994,-23.86313069530121],[-46.61956882299995,-23.86306451830125],[-46.61975415799999,-23.86139684830128],[-46.62118584099994,-23.86172068830129]]]}},{"type":"Feature","id":"terras-indigenas-013","properties":{"id":"terras-indigenas-013","nome":"Guaviraty","nome_origem":"Guaviraty","natureza":"camada fornecida para a demonstração","fonte_arquivo":"assets/layers/tis_poligonais/tis_poligonais_clipped.kml","terra_indigena":"Guaviraty","etnia":"Guarani Mbya","municipios":"Iguape","superficie_ha":1248,"fase":"Declarada","modalidade":"Tradicionalmente ocupada","data_atualizacao":"Não informada"},"geometry":{"type":"Polygon","coordinates":[[[-47.78561696499997,-24.82370299028036],[-47.79438911999996,-24.82492532228034],[-47.80404021399995,-24.83007566528024],[-47.79455234599993,-24.83408380628014],[-47.78865485199998,-24.83876896528005],[-47.78488349499997,-24.84282847027996],[-47.78476755399998,-24.84481516827991],[-47.78702500899993,-24.84715908927984],[-47.78447898599995,-24.84893178827982],[-47.77846715199996,-24.84616837327987],[-47.76717052299995,-24.83139144028017],[-47.75482840099994,-24.82394523428034],[-47.74819935699998,-24.81082112228067],[-47.76431262199998,-24.80255247328083],[-47.76828036199998,-24.80187603928083],[-47.77677249499993,-24.79622505328093],[-47.77982292399998,-24.79981455428088],[-47.77969637699994,-24.80304292228081],[-47.77741923299993,-24.80687980328073],[-47.77868193699993,-24.8077558842807],[-47.77952281699999,-24.81228975928059],[-47.77523142899998,-24.81607608328054],[-47.77572312799998,-24.82129668628043],[-47.77720281399996,-24.82366153128037],[-47.78561696499997,-24.82370299028036]]]}},{"type":"Feature","id":"terras-indigenas-014","properties":{"id":"terras-indigenas-014","nome":"Boa Vista SertGo do Promirim","nome_origem":"Boa Vista SertGo do Promirim","natureza":"camada fornecida para a demonstração","fonte_arquivo":"assets/layers/tis_poligonais/tis_poligonais_clipped.kml","terra_indigena":"Boa Vista SertGo do Promirim","etnia":"Guarans","municipios":"Ubatuba","superficie_ha":906.3886,"fase":"Regularizada","modalidade":"Tradicionalmente ocupada","data_atualizacao":"Não informada"},"geometry":{"type":"Polygon","coordinates":[[[-45.00637973599999,-23.33642253631303],[-45.01077839399995,-23.33592168231305],[-45.00569495299993,-23.33817994631298],[-45.00189073499996,-23.3424332573129],[-45.00319917499996,-23.35477844331261],[-44.99109968099998,-23.35904633731247],[-44.98607139899998,-23.3630283683124],[-44.97036902899998,-23.37120794431226],[-44.96194974499997,-23.36479456631234],[-44.96216757699995,-23.36157379931246],[-44.95968776099993,-23.35811831231254],[-44.96140416599997,-23.35465881731261],[-44.96616438299998,-23.35465612531259],[-44.96779862099999,-23.34702200431275],[-44.96846477999998,-23.34771587831276],[-44.97428035799993,-23.34308722831284],[-44.97899280699994,-23.34312279931285],[-44.97963669799997,-23.34190703331291],[-44.99880772299997,-23.3410946543129],[-45.00072031799994,-23.34023489031294],[-45.00285391499995,-23.33667484331301],[-45.00637973599999,-23.33642253631303]]]}},{"type":"Feature","id":"terras-indigenas-015","properties":{"id":"terras-indigenas-015","nome":"Vanuire","nome_origem":"Vanuire","natureza":"camada fornecida para a demonstração","fonte_arquivo":"assets/layers/tis_poligonais/tis_poligonais_clipped.kml","terra_indigena":"Vanuire","etnia":"Kaingang","municipios":"Arco-aris e TupI","superficie_ha":708.9304,"fase":"Regularizada","modalidade":"Tradicionalmente ocupada","data_atualizacao":"01/11/2019"},"geometry":{"type":"Polygon","coordinates":[[[-50.35097905599996,-21.79226033934886],[-50.35065650599995,-21.78934045834895],[-50.35178230599996,-21.78855753334897],[-50.39496534599993,-21.79246685834887],[-50.39588986699994,-21.79130876934889],[-50.40003471999994,-21.79132138934889],[-50.39681553399998,-21.81939114634825],[-50.38369268199995,-21.82768288934803],[-50.38597129599998,-21.80780885934852],[-50.38647346099998,-21.80522472534856],[-50.38744649699998,-21.80530699934859],[-50.38608947599993,-21.79809895834873],[-50.35175037799996,-21.79532311234879],[-50.35097905599996,-21.79226033934886]]]}},{"type":"Feature","id":"terras-indigenas-016","properties":{"id":"terras-indigenas-016","nome":"Amba Por1","nome_origem":"Amba Por1","natureza":"camada fornecida para a demonstração","fonte_arquivo":"assets/layers/tis_poligonais/tis_poligonais_clipped.kml","terra_indigena":"Amba Por1","etnia":"Guarani Mbya","municipios":"Miracatu","superficie_ha":7204,"fase":"Declarada","modalidade":"Tradicionalmente ocupada","data_atualizacao":"29/08/2016"},"geometry":{"type":"Polygon","coordinates":[[[-47.34303577599997,-24.16537855729456],[-47.34220510899996,-24.16401407729463],[-47.34017899799994,-24.16443301129461],[-47.34169590499994,-24.16308266729463],[-47.34028012499994,-24.16153482829466],[-47.33845388899994,-24.16281378829467],[-47.33896547299997,-24.16101729529468],[-47.33720323799997,-24.15844917029476],[-47.33399120899998,-24.15803166629472],[-47.33606728999997,-24.15722146029475],[-47.33430053899997,-24.15464450429482],[-47.33534155399997,-24.15378789829483],[-47.33415009199995,-24.15342642229481],[-47.33471694499998,-24.15116930029493],[-47.33279315099998,-24.15214963929486],[-47.33037799799996,-24.14975233129489],[-47.33018764099996,-24.14723010329498],[-47.32747029699993,-24.14660549529498],[-47.32499738699994,-24.14917090729496],[-47.31905295399998,-24.145640028295],[-47.32103385499994,-24.13968423829514],[-47.32374566899995,-24.1377435442952],[-47.32148833199994,-24.13542071929525],[-47.31931750099994,-24.13408096929527],[-47.31500451999995,-24.13606701329521],[-47.31388262299998,-24.13319544729531],[-47.30722964999995,-24.1275960992954],[-47.30094787299998,-24.12602803529547],[-47.30624455299994,-24.12003893129556],[-47.30291092799996,-24.11149297829574],[-47.30713904399994,-24.11275011629574],[-47.31136753199996,-24.11048979729577],[-47.31518894699997,-24.11038986029577],[-47.31873258499996,-24.10603128929591],[-47.31790153199995,-24.10374402529594],[-47.31364705599998,-24.10062026929602],[-47.31130347999993,-24.10130575629601],[-47.30966127299996,-24.099182429296],[-47.31014118199994,-24.09782017829605],[-47.30299658899997,-24.09426710829611],[-47.29765927099999,-24.09864943129602],[-47.29432202599997,-24.09793338229604],[-47.29370460699994,-24.09409514229613],[-47.29517133099995,-24.08948398929626],[-47.29294155499997,-24.08971720229625],[-47.29191918599997,-24.08822145129628],[-47.29299552799995,-24.08491994129633],[-47.29017818299997,-24.08075978829643],[-47.29728326499998,-24.07570445729656],[-47.29729316099997,-24.07963021629644],[-47.30003630099998,-24.07992800029642],[-47.30571845399993,-24.07775079329648],[-47.31004941099997,-24.07802123229649],[-47.31257843999998,-24.07562117529656],[-47.31454868599997,-24.07674887129651],[-47.31342862299994,-24.07847017429648],[-47.31409891599998,-24.07949969729645],[-47.31882214599995,-24.07991729329648],[-47.32212964899998,-24.07883327929649],[-47.32627942799996,-24.08063691029642],[-47.32572734199994,-24.08166619629641],[-47.32682189399998,-24.08261798129638],[-47.32855419299995,-24.08191706029642],[-47.32934412299994,-24.08343294629637],[-47.33224235799998,-24.08373496929638],[-47.33413164999996,-24.08553384129634],[-47.33633021999998,-24.08445611429636],[-47.34515650099996,-24.08564341529635],[-47.34452989499993,-24.08759445429627],[-47.34844648699993,-24.09067823629623],[-47.35069825599993,-24.08863649229627],[-47.35228693699997,-24.09082576229621],[-47.35735042999994,-24.0868282682963],[-47.35898982699996,-24.08840958929628],[-47.36254808599995,-24.08451243129634],[-47.36559045199994,-24.08641322129633],[-47.36873609899992,-24.08292612129638],[-47.37589271699994,-24.08289082229638],[-47.37773289399996,-24.08542438629631],[-47.37943891499998,-24.08491297129631],[-47.38491886499997,-24.08675688429629],[-47.38643696099997,-24.08943139929626],[-47.39415112199998,-24.09013945729622],[-47.39379420399996,-24.09423213029614],[-47.40379507699999,-24.09242374029618],[-47.40438042599992,-24.09428566729613],[-47.40583453499994,-24.09386157329615],[-47.40931447199995,-24.09784695829608],[-47.40882461399998,-24.10043476629601],[-47.41593032899993,-24.10304565329596],[-47.41785882299996,-24.10591258829589],[-47.41791917699993,-24.10840591829582],[-47.41382985099995,-24.10732784229584],[-47.41390778699997,-24.10917990429581],[-47.41760784899998,-24.11098710529579],[-47.41546633399997,-24.11387577029573],[-47.41996261899993,-24.11907923729562],[-47.41946382899994,-24.12234665129554],[-47.41700108699996,-24.12297720929547],[-47.41428850099993,-24.12190050329552],[-47.41388634799994,-24.12356192329549],[-47.41139152399995,-24.1236856342955],[-47.41067999199998,-24.12545769029545],[-47.40040926299997,-24.13001668629537],[-47.39637322199997,-24.12955054929539],[-47.38641374999997,-24.11998011829556],[-47.37838164099998,-24.1227283962955],[-47.37526645099995,-24.12707852729543],[-47.37975649299995,-24.12760748129543],[-47.37956375699998,-24.13042143229537],[-47.37725746399997,-24.13221614029531],[-47.37850073299995,-24.13986515629516],[-47.37510072099997,-24.14363279429506],[-47.37499007699995,-24.14875601229496],[-47.37204669499994,-24.14896895729494],[-47.37062019599995,-24.15333932929482],[-47.36802182399999,-24.15457093829479],[-47.36313465399996,-24.1608515052947],[-47.36466330099995,-24.16217252529465],[-47.36176360399998,-24.1654964122946],[-47.36048047999998,-24.16491314629457],[-47.35881247799994,-24.16693152529452],[-47.35651927199996,-24.16710998429455],[-47.35641814499996,-24.16928867829451],[-47.35350455399999,-24.17263945529442],[-47.35040972499996,-24.17073353429446],[-47.35010039599995,-24.17253597629441],[-47.34838718399994,-24.17186377829446],[-47.34806595599998,-24.16702752429457],[-47.34303577599997,-24.16537855729456]]]}},{"type":"Feature","id":"terras-indigenas-017","properties":{"id":"terras-indigenas-017","nome":"Ribeirão Silveira","nome_origem":"Ribeir2o Silveira","natureza":"camada fornecida para a demonstração","fonte_arquivo":"assets/layers/tis_poligonais/tis_poligonais_clipped.kml","terra_indigena":"Ribeirão Silveira","etnia":"Guaran2","municipios":"Suo Sebastilo,Bertioga","superficie_ha":8468.9333,"fase":"Declarada","modalidade":"Tradicionalmente ocupada","data_atualizacao":"26/04/2024"},"geometry":{"type":"Polygon","coordinates":[[[-45.84039499899995,-23.75241189330372],[-45.83993507799994,-23.75032747730376],[-45.82173040899994,-23.74921096430378],[-45.81961584499993,-23.74033928130398],[-45.81726109499994,-23.74278906630389],[-45.81330585799998,-23.74163073730394],[-45.81313912799993,-23.75520660330364],[-45.80520093699994,-23.75643883030362],[-45.79441884799996,-23.75010547230375],[-45.77042289899998,-23.75386917630365],[-45.76687598299998,-23.75355614230368],[-45.76695676099997,-23.75165961030373],[-45.76455423499994,-23.75065389430375],[-45.76382573399997,-23.75129678230368],[-45.76541927599993,-23.75359566930369],[-45.76191301999995,-23.75357159030367],[-45.76322458799996,-23.74636058530384],[-45.75423518999997,-23.74180460930394],[-45.75357028399998,-23.72381367030433],[-45.75627476299996,-23.71908083130444],[-45.75370001999995,-23.71291092730454],[-45.75415908199994,-23.70578297830471],[-45.75863993499996,-23.69829825830488],[-45.75400065599995,-23.68818141030512],[-45.75387965299996,-23.6853729773052],[-45.75734746999996,-23.68056297830528],[-45.75468431999997,-23.67639667330536],[-45.75447606099993,-23.66958961830554],[-45.76206082099998,-23.67045622730553],[-45.77661834099996,-23.68174991330527],[-45.79428763899995,-23.68123639130528],[-45.79734945999996,-23.67548847530539],[-45.81050739599993,-23.67565036830542],[-45.82572046399997,-23.66902329630556],[-45.85104139599997,-23.67330631730545],[-45.84667142399996,-23.68038635430528],[-45.84697511799993,-23.68322688430523],[-45.85345522899996,-23.69079297730504],[-45.85499630099997,-23.69567993030498],[-45.85784474399998,-23.6986623413049],[-45.85819758199995,-23.70181934230482],[-45.85633905699996,-23.70484293330474],[-45.86003561599995,-23.71359086530454],[-45.85821864999997,-23.7146886373045],[-45.85483367199998,-23.71431451430454],[-45.85395765099997,-23.71544345630449],[-45.85586085999995,-23.71846626630443],[-45.85412308399998,-23.72222243930435],[-45.85680891599998,-23.72278427530437],[-45.85871527999996,-23.7252871463043],[-45.85815062899997,-23.72756226730421],[-45.86004384099994,-23.72917668130419],[-45.85812864299993,-23.72932769630422],[-45.84866724399996,-23.74221215330393],[-45.84726880399996,-23.75558985330359],[-45.84092192999999,-23.75480001130365],[-45.84039499899995,-23.75241189330372]]]}},{"type":"Feature","id":"terras-indigenas-018","properties":{"id":"terras-indigenas-018","nome":"Ararib2","nome_origem":"Ararib2","natureza":"camada fornecida para a demonstração","fonte_arquivo":"assets/layers/tis_poligonais/tis_poligonais_clipped.kml","terra_indigena":"Ararib2","etnia":"Terena,Guarani Kaiow","municipios":"Avae","superficie_ha":1930.3369,"fase":"Regularizada","modalidade":"Tradicionalmente ocupada","data_atualizacao":"10/04/2026"},"geometry":{"type":"Polygon","coordinates":[[[-49.34505167999999,-22.24230796933822],[-49.35146753999993,-22.24877424933807],[-49.35252592999996,-22.25363363933798],[-49.35455646999998,-22.25574516933791],[-49.35502377999995,-22.26075619933778],[-49.35708108999995,-22.26207875933775],[-49.35791576999998,-22.2646944893377],[-49.36279454999993,-22.26610521933764],[-49.36451681999995,-22.26947627933756],[-49.36829051999996,-22.26921764933761],[-49.37676665999993,-22.27549538933744],[-49.37766011999997,-22.28755125933713],[-49.38180502999996,-22.29426667933702],[-49.38165459999993,-22.30296338933678],[-49.38379091999997,-22.30823020933669],[-49.38392129999994,-22.31272307933657],[-49.38200398999993,-22.31174527933661],[-49.37884160999994,-22.31273572933654],[-49.37674315999993,-22.30898802933667],[-49.36136376999996,-22.29819779933692],[-49.35861966999994,-22.29136398933711],[-49.34620949999999,-22.2814276293373],[-49.33985064999996,-22.27845962933734],[-49.33727208999994,-22.27381720933747],[-49.33181008999998,-22.2687262093376],[-49.33216595999994,-22.26675667933766],[-49.33614182999997,-22.26278693933774],[-49.33561569999995,-22.2564887493379],[-49.33158000999997,-22.25079643933801],[-49.32602728999996,-22.25098663933802],[-49.32230348999997,-22.24955653933806],[-49.32575271999997,-22.2431299993382],[-49.32961354999998,-22.24399972933817],[-49.33344829999999,-22.24212222933822],[-49.33431954999998,-22.23793160933835],[-49.33888944999995,-22.23348883933842],[-49.34053145999997,-22.23437260933843],[-49.34326474999995,-22.24189062933822],[-49.34505167999999,-22.24230796933822]]]}},{"type":"Feature","id":"terras-indigenas-019","properties":{"id":"terras-indigenas-019","nome":"ItaMca","nome_origem":"ItaMca","natureza":"camada fornecida para a demonstração","fonte_arquivo":"assets/layers/tis_poligonais/tis_poligonais_clipped.kml","terra_indigena":"ItaMca","etnia":"Guarani Mbya","municipios":"Mongagu","superficie_ha":533,"fase":"Declarada","modalidade":"Tradicionalmente ocupada","data_atualizacao":"27/08/2019"},"geometry":{"type":"Polygon","coordinates":[[[-46.70209145999996,-24.09004839929623],[-46.69992675999998,-24.08987573929626],[-46.69855608999995,-24.09234360929617],[-46.70111051999999,-24.09556285929613],[-46.69122243999994,-24.10264502929596],[-46.68667383999997,-24.09623288929609],[-46.68707695999996,-24.09451900929612],[-46.69170464999996,-24.09039288929625],[-46.68992543999996,-24.08809039929627],[-46.69216637999995,-24.08402138929638],[-46.68711876999999,-24.07825015929652],[-46.68762131999996,-24.07185370929664],[-46.69104289999996,-24.07280643929661],[-46.69227284999994,-24.07126648929666],[-46.69392771999998,-24.07263811929662],[-46.69470257999996,-24.07009776929668],[-46.69713504999998,-24.07182055929661],[-46.69865250999993,-24.07059050929664],[-46.70103374999996,-24.07407981929657],[-46.70385697999996,-24.0737826792966],[-46.70344134999993,-24.07554993929656],[-46.70695688999996,-24.07797051929649],[-46.70558353999997,-24.07787846929651],[-46.70603104999998,-24.07901317929646],[-46.71169933999994,-24.08011690929645],[-46.71101315999994,-24.08214077929642],[-46.71596626999997,-24.08439584929636],[-46.70526464999995,-24.09248235929618],[-46.70368040999995,-24.08988551929622],[-46.70209145999996,-24.09004839929623]]]}},{"type":"Feature","id":"terras-indigenas-020","properties":{"id":"terras-indigenas-020","nome":"Rio Branco ItanhaNm","nome_origem":"Rio Branco ItanhaNm","natureza":"camada fornecida para a demonstração","fonte_arquivo":"assets/layers/tis_poligonais/tis_poligonais_clipped.kml","terra_indigena":"Rio Branco ItanhaNm","etnia":"Guarana","municipios":"Suo Paulo,SIo Vicente,ItanhaAm","superficie_ha":2856.1,"fase":"Regularizada","modalidade":"Tradicionalmente ocupada","data_atualizacao":"12/02/2026"},"geometry":{"type":"Polygon","coordinates":[[[-46.69464599999998,-24.01830095929783],[-46.68732452399996,-24.02906497929754],[-46.66966579999997,-24.02254729929768],[-46.64477359999995,-24.01074849929801],[-46.63819489999998,-24.00911919929798],[-46.63169459999995,-24.01002269929801],[-46.62036109999998,-24.00803879929804],[-46.61930876599996,-24.00696565629807],[-46.62516829399994,-24.00151813229815],[-46.62834409199996,-24.00119384829818],[-46.63237775199996,-23.99728314029828],[-46.63510170199999,-23.99729518029829],[-46.63659571199997,-23.9943127832983],[-46.63482620299993,-23.99464110429834],[-46.63379387599997,-23.99265022429838],[-46.63103626599997,-23.99211585029836],[-46.62896825899998,-23.98979306529843],[-46.62656171899994,-23.99010850629842],[-46.62244245299996,-23.98810000129847],[-46.62183611599994,-23.9868027732985],[-46.62462731399995,-23.98065628529862],[-46.62197365999998,-23.97733293229872],[-46.62515701699994,-23.97615895829875],[-46.63061199699996,-23.97691464429874],[-46.63661958399996,-23.97385933829877],[-46.65300331199995,-23.98139140829863],[-46.65224559699993,-23.98514229729854],[-46.65478194499997,-23.98368565629858],[-46.66010701299996,-23.98568728129854],[-46.66818753999996,-23.98654283429851],[-46.67018296299995,-23.98828859229846],[-46.67317390999995,-23.98463498329857],[-46.67098040099996,-23.98028537229865],[-46.67122591699996,-23.97800895029867],[-46.67417875899997,-23.97788278829873],[-46.67581772499994,-23.97922511829869],[-46.67705386599994,-23.97751511629868],[-46.67677427399997,-23.98015368129866],[-46.67784736699997,-23.97854839429869],[-46.67912716299998,-23.98035802829864],[-46.68020592499994,-23.97879435329867],[-46.68050258099999,-23.98083368329863],[-46.68270715099993,-23.97907945329865],[-46.68123351799994,-23.98104709929863],[-46.67791353599994,-23.98022027829868],[-46.67837366999999,-23.98132297129859],[-46.67691293399997,-23.98099256029861],[-46.67630523699995,-23.98218869429858],[-46.67856185599993,-23.9824911252986],[-46.67743939199995,-23.98353155329858],[-46.67988884599998,-23.98418556429857],[-46.68103924199995,-23.98243637829862],[-46.68168764599994,-23.98520790329852],[-46.68189720299996,-23.98377729029858],[-46.68470021299999,-23.98396824929859],[-46.68464995499995,-23.98584595329852],[-46.68339429599995,-23.98582502229853],[-46.68427041699994,-23.9876273432985],[-46.68284035099999,-23.98870100529843],[-46.68539726899996,-23.98914735129846],[-46.68485675199997,-23.98704135029851],[-46.68618828399996,-23.98674975729852],[-46.68758979399996,-23.98758684029847],[-46.68644272699999,-23.9877040402985],[-46.68597265999995,-23.98995896829841],[-46.68973265099999,-23.98906327729843],[-46.69270443199997,-23.99013297529839],[-46.69252964399993,-23.98906082929846],[-46.69406811599998,-23.98879343929845],[-46.69873235899996,-23.99223095029837],[-46.70128204899999,-23.99219764529839],[-46.69949117999994,-23.99622515929828],[-46.69864633999999,-24.00678108929806],[-46.69439652999995,-24.01368262929791],[-46.69464599999998,-24.01830095929783]]]}},{"type":"Feature","id":"terras-indigenas-021","properties":{"id":"terras-indigenas-021","nome":"Tenond2 Por","nome_origem":"Tenond2 Por","natureza":"camada fornecida para a demonstração","fonte_arquivo":"assets/layers/tis_poligonais/tis_poligonais_clipped.kml","terra_indigena":"Tenond2 Por","etnia":"Guaran2","municipios":"Mongagu","superficie_ha":15969,"fase":"Declarada","modalidade":"Tradicionalmente ocupada","data_atualizacao":"12/02/2026"},"geometry":{"type":"Polygon","coordinates":[[[-46.65044358099993,-23.84939022430157],[-46.65042066899997,-23.85447526530142],[-46.65182714999997,-23.85726275530136],[-46.65100657799996,-23.85887337130131],[-46.65404225699996,-23.86269531430123],[-46.65300161199997,-23.86637984530117],[-46.65891666799996,-23.86802777530114],[-46.65874999599998,-23.87183333530104],[-46.65443146999996,-23.87283116130102],[-46.65288751899993,-23.87080051030108],[-46.64991653699997,-23.87147226330107],[-46.64830243299998,-23.87870500230087],[-46.65013443299995,-23.88830106330068],[-46.66677693999998,-23.88772208930069],[-46.67476622099997,-23.89252397530057],[-46.67616833299996,-23.89473002330053],[-46.67450740499999,-23.89885295430043],[-46.67929681399994,-23.90265717630038],[-46.67958977699993,-23.92002920229998],[-46.68027442599998,-23.92095590029996],[-46.68140120699996,-23.91990772829996],[-46.68571619499994,-23.92519167729988],[-46.69073203599999,-23.92688185729981],[-46.69253288499993,-23.93339372329965],[-46.69432393199997,-23.93494431529961],[-46.69305769299996,-23.9403990772995],[-46.69032688699997,-23.94099640329953],[-46.69013630099994,-23.94275398329949],[-46.69231128899997,-23.94413539429942],[-46.69107442999996,-23.94557576629944],[-46.69152989899993,-23.94716179929937],[-46.69021788399994,-23.94621854929941],[-46.68969229399994,-23.94768892429938],[-46.69136403299996,-23.94925211329931],[-46.69114268799996,-23.9507780412993],[-46.69228939699997,-23.94991497129929],[-46.69555961899994,-23.95073298129932],[-46.70062096399993,-23.94863095129936],[-46.70075087699996,-23.94977403129929],[-46.70239388399995,-23.94891599129935],[-46.70625562899994,-23.95167023729929],[-46.70776686899995,-23.95070356929931],[-46.70913778599999,-23.9552267862992],[-46.71309018299996,-23.95727789829916],[-46.71690044599995,-23.96305498529905],[-46.71202467999996,-23.96799435529892],[-46.71321239499997,-23.97181399229883],[-46.70781276499997,-23.97777504429868],[-46.70743455599995,-23.99527063829832],[-46.70581474899996,-23.99349861429836],[-46.69873235899996,-23.99223095029837],[-46.69406811599998,-23.98879343929845],[-46.69252964399993,-23.98906082929846],[-46.69270443199997,-23.99013297529839],[-46.68973265099999,-23.98906327729843],[-46.68597265999995,-23.98995896829841],[-46.68644272699999,-23.9877040402985],[-46.68758979399996,-23.98758684029847],[-46.68618828399996,-23.98674975729852],[-46.68485675199997,-23.98704135029851],[-46.68539726899996,-23.98914735129846],[-46.68284035099999,-23.98870100529843],[-46.68427041699994,-23.9876273432985],[-46.68339429599995,-23.98582502229853],[-46.68464995499995,-23.98584595329852],[-46.68470021299999,-23.98396824929859],[-46.68189720299996,-23.98377729029858],[-46.68168764599994,-23.98520790329852],[-46.68103924199995,-23.98243637829862],[-46.67988884599998,-23.98418556429857],[-46.67743939199995,-23.98353155329858],[-46.67856185599993,-23.9824911252986],[-46.67630523699995,-23.98218869429858],[-46.67691293399997,-23.98099256029861],[-46.67837366999999,-23.98132297129859],[-46.67791353599994,-23.98022027829868],[-46.68123351799994,-23.98104709929863],[-46.68270715099993,-23.97907945329865],[-46.68050258099999,-23.98083368329863],[-46.68020592499994,-23.97879435329867],[-46.67912716299998,-23.98035802829864],[-46.67784736699997,-23.97854839429869],[-46.67677427399997,-23.98015368129866],[-46.67705386599994,-23.97751511629868],[-46.67581772499994,-23.97922511829869],[-46.67417875899997,-23.97788278829873],[-46.67122591699996,-23.97800895029867],[-46.67098040099996,-23.98028537229865],[-46.67317390999995,-23.98463498329857],[-46.67018296299995,-23.98828859229846],[-46.66818753999996,-23.98654283429851],[-46.66010701299996,-23.98568728129854],[-46.65478194499997,-23.98368565629858],[-46.65224559699993,-23.98514229729854],[-46.65300331199995,-23.98139140829863],[-46.63661958399996,-23.97385933829877],[-46.63061199699996,-23.97691464429874],[-46.62515701699994,-23.97615895829875],[-46.62197365999998,-23.97733293229872],[-46.62462731399995,-23.98065628529862],[-46.62183611599994,-23.9868027732985],[-46.62244245299996,-23.98810000129847],[-46.62656171899994,-23.99010850629842],[-46.62896825899998,-23.98979306529843],[-46.63103626599997,-23.99211585029836],[-46.63379387599997,-23.99265022429838],[-46.63482620299993,-23.99464110429834],[-46.63659571199997,-23.9943127832983],[-46.63624673699996,-23.99612714729831],[-46.63049878399993,-23.99829081829827],[-46.62834409199996,-24.00119384829818],[-46.62516829399994,-24.00151813229815],[-46.61823416699998,-24.00812055629801],[-46.60928250299997,-24.0135347942979],[-46.60772124799996,-24.01760708729784],[-46.61341445999994,-24.02244738029771],[-46.61597062899995,-24.02768329829758],[-46.62202003799996,-24.03091792729752],[-46.62591051699997,-24.03739463629741],[-46.60878461899995,-24.03799718529734],[-46.60417723499995,-24.02941207129755],[-46.60378165799995,-24.02646321029764],[-46.60529841399995,-24.02418239429769],[-46.58919128499997,-24.00982537329799],[-46.58947326699996,-24.00674041529807],[-46.59153158799995,-24.00535005329809],[-46.59101326299998,-24.00253859929818],[-46.59316191899995,-23.99645257229828],[-46.59249300999994,-23.99417312129833],[-46.58429883799994,-23.98623031129853],[-46.57798153099998,-23.98508412229856],[-46.57557112499995,-23.9829997292986],[-46.57642693499997,-23.98041967829866],[-46.56895680799995,-23.97036844429887],[-46.55740565299993,-23.96655825729896],[-46.54798081399998,-23.9564268202992],[-46.54112217499995,-23.95366296829921],[-46.53178397399994,-23.94741592029937],[-46.52136152599996,-23.94469517929942],[-46.52292754299997,-23.93882477129958],[-46.52086061099993,-23.93559716529966],[-46.52252274599994,-23.93356962729966],[-46.51971090299998,-23.93037835729971],[-46.51646750099997,-23.93004413129978],[-46.51621565999994,-23.92778333229983],[-46.51929027099994,-23.92526102429984],[-46.52328232899998,-23.91768063230005],[-46.52935423799993,-23.91866248330003],[-46.53448339599998,-23.92502682229985],[-46.53984955799996,-23.92573385129985],[-46.54724721599996,-23.92885923629982],[-46.55120260999996,-23.92869039329977],[-46.55549428999996,-23.92458667929987],[-46.55668744999997,-23.91673877430004],[-46.56104728199995,-23.90301208830035],[-46.58531760199997,-23.90575115730026],[-46.59179336399996,-23.89412196830056],[-46.58757287299994,-23.89357499530054],[-46.58672687699993,-23.89097517230061],[-46.57904347499993,-23.88522210230072],[-46.58007320399997,-23.88150802430083],[-46.57844334099997,-23.88054054330082],[-46.58175560999997,-23.87516871930098],[-46.58684484999998,-23.87498365830097],[-46.58933333399994,-23.87099999430109],[-46.58988809799996,-23.8559936003014],[-46.60646358999998,-23.85170671530151],[-46.60772236299994,-23.85316239030145],[-46.60629429899996,-23.85258346630144],[-46.60463454499995,-23.85486710630143],[-46.60033684499996,-23.85556916230137],[-46.59680555399996,-23.85844444330132],[-46.60122873299997,-23.86682865130118],[-46.59795447399995,-23.86691252830113],[-46.59748955899994,-23.87163269130102],[-46.59291666199994,-23.87688888430094],[-46.59457290499995,-23.88040694730086],[-46.59983321699997,-23.88436089830076],[-46.60084086599995,-23.88795760130071],[-46.59581475599999,-23.89318426430055],[-46.59934693099996,-23.89565767230052],[-46.59950944099995,-23.89768829030047],[-46.60100486699997,-23.89683703630049],[-46.60711786599995,-23.89945981330042],[-46.60811834199995,-23.90422566230034],[-46.61103117699997,-23.9062504853003],[-46.61142680199998,-23.90747995230024],[-46.60810362799998,-23.91137660330016],[-46.61086536699997,-23.9135514813001],[-46.60892374999998,-23.91995603929995],[-46.61028823599998,-23.92433040329985],[-46.60954916699995,-23.92692193629984],[-46.61157401199995,-23.92728771829979],[-46.61330670299998,-23.93068821129973],[-46.61592479499996,-23.93042771329975],[-46.61639824199995,-23.93281994729972],[-46.62228373699998,-23.93680510729959],[-46.62934928599998,-23.9359919352996],[-46.63281565799997,-23.94028987729951],[-46.64138483099998,-23.94130475529951],[-46.63995298699996,-23.94175967029948],[-46.64036711099993,-23.94683029729937],[-46.63930133199995,-23.94780896529937],[-46.64087872299996,-23.94708994629935],[-46.64253411499994,-23.94821731329937],[-46.64515903099994,-23.94535283029944],[-46.64590469999997,-23.94650021629937],[-46.64875718999998,-23.94505462129939],[-46.65147601299998,-23.94580401029939],[-46.65402292899995,-23.94256006029947],[-46.65533561499996,-23.94296847629948],[-46.65371879599996,-23.94132828229951],[-46.65644060799997,-23.93904284229957],[-46.65563140999996,-23.93616827529959],[-46.65303737599998,-23.93427928229968],[-46.65146154699995,-23.92571894429987],[-46.64859963199996,-23.92333619729991],[-46.64582994599994,-23.92453035129989],[-46.64472631799999,-23.91994938929996],[-46.63842479199996,-23.90833340130025],[-46.63511056999994,-23.90576331330029],[-46.63501454299995,-23.90388911130031],[-46.63149048399999,-23.9020417103004],[-46.62846707599994,-23.89673984630046],[-46.62975388799998,-23.89161552130059],[-46.62428636899995,-23.88882036530066],[-46.61995149999995,-23.88895536430067],[-46.61849241599999,-23.88666489830074],[-46.61872816099998,-23.88271691030077],[-46.61622956299993,-23.88247784930078],[-46.61419097299996,-23.88029103530085],[-46.61495038399995,-23.87587166730093],[-46.61103590699997,-23.87355963530103],[-46.61169444299998,-23.86927777530108],[-46.60797222499997,-23.86908333130108],[-46.60630709099996,-23.87088047330104],[-46.60445650999998,-23.87069158830105],[-46.60460540699996,-23.8686782773011],[-46.60293839799994,-23.86690873530117],[-46.60610908199994,-23.86583753830119],[-46.60586506899995,-23.86305176830126],[-46.60825377199996,-23.86185748030126],[-46.60685991299994,-23.85751667930134],[-46.60798837799997,-23.8565384053014],[-46.60791883399997,-23.85278788630148],[-46.60630490099993,-23.85133629630147],[-46.60574226999994,-23.84583855730164],[-46.61218290899995,-23.84590261830162],[-46.61555639099999,-23.84842420130154],[-46.61987435399994,-23.84583549030161],[-46.62387060299995,-23.84136541230171],[-46.62730413899994,-23.84300639830165],[-46.62996701499997,-23.84215920730168],[-46.63044604499999,-23.84510314430161],[-46.63152845099995,-23.84500683030165],[-46.63053009799995,-23.84663134030163],[-46.63148178599994,-23.84899253730154],[-46.62850599599994,-23.84834908230156],[-46.63061609599998,-23.84984854530155],[-46.63012287999993,-23.85074211030148],[-46.62839157899999,-23.85010634630152],[-46.62936722699994,-23.85282568430147],[-46.62644888599993,-23.85262955530145],[-46.62437504499997,-23.85036975930153],[-46.61847868099994,-23.84934474430152],[-46.62062843899997,-23.8519741563015],[-46.62338181999996,-23.85196307330149],[-46.62569213699993,-23.85391576830146],[-46.62099958299996,-23.85518372430141],[-46.62265209499998,-23.8559428013014],[-46.61931170899994,-23.85889278830135],[-46.61752922899996,-23.85708378530139],[-46.61525736199997,-23.86032111130129],[-46.61111742399999,-23.85903847130132],[-46.61296150199996,-23.86215499530125],[-46.60834200899996,-23.86464031230118],[-46.60658125799995,-23.8640613963012],[-46.60679487199997,-23.86558228130116],[-46.60360822799998,-23.86735365830113],[-46.60514687299997,-23.86782741130111],[-46.60541484999992,-23.87007046930109],[-46.60989090199997,-23.86541853030115],[-46.61486637499996,-23.86440476730117],[-46.61580746699997,-23.86696925930115],[-46.61454145699997,-23.87119947830108],[-46.61555904799997,-23.87207280230106],[-46.61492970899997,-23.87683988230091],[-46.61622474699993,-23.87860623430089],[-46.61528797099994,-23.88006153930082],[-46.61754985699997,-23.88226569530079],[-46.61663963899996,-23.87732661530091],[-46.61725388199995,-23.87107139130107],[-46.61877695799996,-23.86953834130107],[-46.61810021699995,-23.86699391130114],[-46.62077742199995,-23.86666517530117],[-46.62344456999995,-23.86447046830122],[-46.62247264899998,-23.86152619930127],[-46.62298085399993,-23.85997046430129],[-46.62482881199998,-23.86049441730132],[-46.62474320999996,-23.85816991630133],[-46.62749788099995,-23.85696559130135],[-46.62855380499997,-23.85776504030133],[-46.63081730599998,-23.8553470473014],[-46.63279716799997,-23.8555253953014],[-46.63442676899996,-23.85746335730137],[-46.62968139899994,-23.86254801030124],[-46.62892672699996,-23.86821539730111],[-46.63018508199996,-23.87035261630109],[-46.62979412199996,-23.872968232301],[-46.62625108599997,-23.88095672530085],[-46.63034501799996,-23.88178612830084],[-46.62934984699996,-23.8827748663008],[-46.63004059499996,-23.88531530530072],[-46.64075030999993,-23.89263995330056],[-46.64730806799997,-23.89326840230059],[-46.64660161899997,-23.8948947553005],[-46.64819565999995,-23.89772269030046],[-46.65452807399999,-23.89788768130047],[-46.65550421499994,-23.89676446330048],[-46.65346097499997,-23.89274761930059],[-46.65011187799996,-23.89087175130062],[-46.64719549799998,-23.88588747230076],[-46.64688057199993,-23.87812255530088],[-46.64459909399994,-23.87439486230099],[-46.64464771399998,-23.873123039301],[-46.64713958499994,-23.872861306301],[-46.64681656699997,-23.87128358830107],[-46.65278776999997,-23.87060207530106],[-46.65361218999993,-23.86837125230113],[-46.65291987599994,-23.86708646430113],[-46.64772222299996,-23.86597221730118],[-46.64610232599995,-23.85909068430132],[-46.64280823899998,-23.85715666230136],[-46.64143088099996,-23.85461611830142],[-46.64230112299999,-23.8510125333015],[-46.64453776399995,-23.84835600530157],[-46.64767752599994,-23.84805335830156],[-46.65044358099993,-23.84939022430157]]]}},{"type":"Feature","id":"terras-indigenas-022","properties":{"id":"terras-indigenas-022","nome":"Guarani do Aguapeu","nome_origem":"Guarani do Aguapeu","natureza":"camada fornecida para a demonstração","fonte_arquivo":"assets/layers/tis_poligonais/tis_poligonais_clipped.kml","terra_indigena":"Guarani do Aguapeu","etnia":"Guarani","municipios":"Mongagu","superficie_ha":4372.2599,"fase":"Regularizada","modalidade":"Tradicionalmente ocupada","data_atualizacao":"12/02/2026"},"geometry":{"type":"Polygon","coordinates":[[[-46.68189889999996,-24.02670859929762],[-46.68733019299998,-24.0290674422976],[-46.68509186999996,-24.04574697929718],[-46.68249076999996,-24.04872131929716],[-46.67330007999993,-24.05347439929705],[-46.67252058999997,-24.05229694929708],[-46.67103610999993,-24.05501884929699],[-46.66821832999995,-24.05608792929695],[-46.66519651999994,-24.06107112929687],[-46.66516949999993,-24.06361094929679],[-46.67174223999995,-24.06472312929678],[-46.67337289999995,-24.06668640929673],[-46.67706705999996,-24.06510224929676],[-46.68111775999995,-24.06900338929671],[-46.68467335999998,-24.07036668929665],[-46.68893666999998,-24.0682974592967],[-46.69078311999994,-24.0723541092966],[-46.68728464999998,-24.07154138929661],[-46.68689890999998,-24.07571646929657],[-46.68262449999997,-24.07711160929653],[-46.68256651999997,-24.07933574929644],[-46.68014461999996,-24.08277639929638],[-46.67772010999994,-24.08298427929638],[-46.67469879999993,-24.08622565929632],[-46.66933225999998,-24.08673324929629],[-46.66222486999993,-24.08960893929623],[-46.65916163999999,-24.08824161929628],[-46.65807663999993,-24.09050644929623],[-46.65080451999995,-24.08559782929636],[-46.64917789999998,-24.08837542929625],[-46.64680489999996,-24.08854035929627],[-46.64665549999995,-24.0870247592963],[-46.64441059999996,-24.08684559929629],[-46.64441719999996,-24.08346983929638],[-46.64127163999996,-24.08388509929638],[-46.63803952999996,-24.08014791929644],[-46.63643168999994,-24.08053787929643],[-46.63498498999996,-24.07160656929666],[-46.63400136999996,-24.07124523929662],[-46.63652566999998,-24.06517963929676],[-46.63300720999996,-24.0631796392968],[-46.63006368999999,-24.05819922929693],[-46.62912360999997,-24.04919349929712],[-46.62674717999994,-24.04754439929715],[-46.62752100999995,-24.04332554929727],[-46.62692520999997,-24.03981331929733],[-46.62518649999999,-24.0380331392974],[-46.62598476199997,-24.0367718302974],[-46.62202003799996,-24.03091792729752],[-46.61597062899995,-24.02768329829758],[-46.61341445999994,-24.02244738029771],[-46.60772124799996,-24.01760708729784],[-46.60928250299997,-24.0135347942979],[-46.61930897399998,-24.00696586929803],[-46.62411669999995,-24.00922499929801],[-46.62724269999995,-24.00844959929801],[-46.63399049999998,-24.01009639929799],[-46.63819489999998,-24.00911919929798],[-46.64759649999996,-24.01177829929794],[-46.66966579999997,-24.02254729929768],[-46.68189889999996,-24.02670859929762]]]}},{"type":"Feature","id":"terras-indigenas-023","properties":{"id":"terras-indigenas-023","nome":"Peguaoty","nome_origem":"Peguaoty","natureza":"camada fornecida para a demonstração","fonte_arquivo":"assets/layers/tis_poligonais/tis_poligonais_clipped.kml","terra_indigena":"Peguaoty","etnia":"Guarani Mbya","municipios":"Sete Barras,Miracatu","superficie_ha":6230,"fase":"Declarada","modalidade":"Tradicionalmente ocupada","data_atualizacao":"07/06/2016"},"geometry":{"type":"Polygon","coordinates":[[[-48.05282954199999,-24.22996391129318],[-48.05108859099994,-24.23100753229316],[-48.05360152999999,-24.23522144229304],[-48.05248572899995,-24.23762959629301],[-48.04674994299995,-24.23756391929301],[-48.04358968099996,-24.23969665529298],[-48.04155240299997,-24.23963458829293],[-48.04034058799994,-24.24153363629294],[-48.03589457299996,-24.24185678829289],[-48.03492511999998,-24.2431143832929],[-48.03412262899997,-24.24187025329288],[-48.03290542799994,-24.2424411522929],[-48.03240723699997,-24.24055772229292],[-48.02745178599997,-24.24057419529293],[-48.02556993499997,-24.23657899729304],[-48.02568557599994,-24.22626760229324],[-48.02299690299998,-24.22295253829332],[-48.01824595299996,-24.2201231682934],[-48.01851578299994,-24.21641588529345],[-48.02109844999995,-24.21281460629352],[-48.01992581099994,-24.20575965029368],[-48.01763883199993,-24.20205413629377],[-48.01625113099993,-24.20117718629378],[-48.01089787899996,-24.20188067429375],[-48.00713162599993,-24.19625604529393],[-47.99792996699995,-24.19681084829391],[-47.99499862699997,-24.19047820929405],[-47.99540187599996,-24.18905696229403],[-47.99071650699995,-24.18368575429417],[-47.98987417799998,-24.18060197229425],[-47.96950181699998,-24.1773208072943],[-47.96853099699996,-24.17531254129439],[-47.96366200199997,-24.17487146729435],[-47.96057883799995,-24.17288906129442],[-47.96610604799997,-24.17152445529442],[-47.96834913099997,-24.16958907129448],[-47.97086610199995,-24.17119685729447],[-47.98297366299994,-24.1729478712944],[-47.97764280599995,-24.16885546729448],[-47.98072791899995,-24.16853006929453],[-47.98185282199995,-24.16640299029453],[-47.98176732899999,-24.16464576329458],[-47.97929891099994,-24.1634683672946],[-47.97901337599996,-24.16192647629465],[-47.98341930899994,-24.1563977022948],[-47.98882961999993,-24.15396362129482],[-47.99736779099993,-24.15875393629474],[-48.00624413199996,-24.15286048629484],[-48.01792501299996,-24.15194214629486],[-48.02456037799993,-24.1591671412947],[-48.02440333399994,-24.16162417329465],[-48.02794350999994,-24.16911463129448],[-48.03040434599995,-24.16770804629453],[-48.03035675599995,-24.16629131429456],[-48.03384171499994,-24.16545374429459],[-48.03458315399996,-24.16275020029462],[-48.03664900199993,-24.16215866729466],[-48.03662996699995,-24.16038977529466],[-48.04326485599995,-24.16283919229465],[-48.04556766999997,-24.16222084529466],[-48.04587178299994,-24.16092329629468],[-48.04944004099997,-24.16144028829464],[-48.04938935499996,-24.16271756229463],[-48.05337656399995,-24.16473309929461],[-48.05394763499999,-24.16695884829455],[-48.05506360199997,-24.16669710629454],[-48.05704070999997,-24.16930442529448],[-48.05560089399995,-24.17265457029441],[-48.05737359299997,-24.17420122029441],[-48.05768979999993,-24.17643189329434],[-48.06075335599996,-24.17757403529431],[-48.06143745099996,-24.18070302629423],[-48.05981346899996,-24.1828326442942],[-48.06667226499997,-24.18302300029422],[-48.06971379799995,-24.18564810829414],[-48.07247220199998,-24.18603896729411],[-48.07629123699996,-24.19053019929403],[-48.08264346899995,-24.19384366929398],[-48.08410683699997,-24.19107159729401],[-48.08739142299999,-24.19367703629393],[-48.08942493299997,-24.19318931729398],[-48.09273331199996,-24.19461692329394],[-48.09420764999993,-24.20018493229381],[-48.09070996399998,-24.20291170429376],[-48.08917716499997,-24.20921840829363],[-48.08614677799994,-24.21188959629358],[-48.08485311999993,-24.21487459329353],[-48.08528433999992,-24.21940239929342],[-48.08283420799996,-24.2242837022933],[-48.07934709399996,-24.22586300629322],[-48.07005976699998,-24.22563601429327],[-48.06741951699995,-24.22721692829322],[-48.05990664599994,-24.22608337829324],[-48.05496946199998,-24.23124462729315],[-48.05282954199999,-24.22996391129318]],[[-48.09044035499995,-24.19389961529395],[-48.09046108799998,-24.19386390229397],[-48.09043279799995,-24.19388879529395],[-48.09044035499995,-24.19389961529395]]]}},{"type":"Feature","id":"terras-indigenas-024","properties":{"id":"terras-indigenas-024","nome":"Jaraguá","nome_origem":"Jaragu2","natureza":"camada fornecida para a demonstração","fonte_arquivo":"assets/layers/tis_poligonais/tis_poligonais_clipped.kml","terra_indigena":"Jaraguá","etnia":"Guaran2","municipios":"Osasco e S","superficie_ha":532,"fase":"Declarada","modalidade":"Tradicionalmente ocupada","data_atualizacao":"15/04/2026"},"geometry":{"type":"MultiPolygon","coordinates":[[[[-46.76042361099996,-23.44369111031061],[-46.76811444399993,-23.4428227773106],[-46.76721388899994,-23.44757555431051],[-46.76946166599999,-23.44902999931046],[-46.77008083299995,-23.45311916631039],[-46.77472055499993,-23.44922666531048],[-46.77799749999998,-23.44928333331048],[-46.77953611099997,-23.4467669433105],[-46.78421722299998,-23.45067333231043],[-46.78524888899994,-23.45362638831038],[-46.77753722199999,-23.4649777773101],[-46.77824638899995,-23.47066916631001],[-46.77053194399997,-23.47383416530992],[-46.76808805499997,-23.47617444330989],[-46.76604916599996,-23.47565444330985],[-46.76567472199998,-23.47674916630988],[-46.76092166599994,-23.47305888830994],[-46.76323361099998,-23.47012611031001],[-46.76067638899997,-23.46878638831002],[-46.75827694499998,-23.47177749930998],[-46.75669583299998,-23.47042333331001],[-46.75592305599997,-23.46494888831014],[-46.75923111099996,-23.46729583231009],[-46.75937972199994,-23.46553055531012],[-46.76402638899997,-23.46643055431006],[-46.76385444499994,-23.46469694431012],[-46.76079222199996,-23.46481388831014],[-46.76464666599997,-23.46311249931018],[-46.76689583299998,-23.46495777731009],[-46.77041749999995,-23.46048972131023],[-46.76979611099995,-23.45767194331029],[-46.76749388899998,-23.45709027731029],[-46.76817805599995,-23.45512833231033],[-46.76662833299997,-23.45443749931038],[-46.76609416699996,-23.45205833231042],[-46.76084111099993,-23.45176527731044],[-46.76042361099996,-23.44369111031061]]],[[[-46.75453249999998,-23.4648280553101],[-46.75461944399996,-23.46466777731014],[-46.75474333299996,-23.46425888831013],[-46.75481666599995,-23.46423805531012],[-46.75496416699997,-23.46430972231011],[-46.75519361099998,-23.46439083231016],[-46.75530166599998,-23.46448388831012],[-46.75539916599996,-23.4645416663101],[-46.75553944399997,-23.46466388831012],[-46.75560305499993,-23.46476333231011],[-46.75564805499994,-23.46487361031014],[-46.75568722199995,-23.46494583231011],[-46.75568972199994,-23.46499277631013],[-46.75573638899994,-23.46510416631009],[-46.75578222299998,-23.46509944331013],[-46.75584527799998,-23.46525944331013],[-46.75592361099996,-23.46552833331009],[-46.75597333299999,-23.4656652773101],[-46.75590194499994,-23.46564472131013],[-46.75550972299994,-23.46552972131008],[-46.75533333299996,-23.46558166631012],[-46.75522888899997,-23.4655955543101],[-46.75516666599998,-23.46570972131007],[-46.75471583299998,-23.46550888831012],[-46.75473222199997,-23.46541833231009],[-46.75462583299997,-23.46541888831013],[-46.75459416699994,-23.46534861031012],[-46.75451888899994,-23.46513416631013],[-46.75453249999998,-23.4648280553101]]],[[[-46.75474166599997,-23.46325499931015],[-46.75510333299997,-23.46324027731015],[-46.75531611099996,-23.46322777731018],[-46.75536222199997,-23.46346222131016],[-46.75480055599996,-23.46348444331016],[-46.75485777799997,-23.46360361031013],[-46.75486694499995,-23.46372416631014],[-46.75480999999997,-23.46377499931013],[-46.75475972199996,-23.46404833331018],[-46.75473805599995,-23.46406944331014],[-46.75473388899997,-23.46398777731011],[-46.75474444499998,-23.46381833231014],[-46.75479583399994,-23.46376166631016],[-46.75484138899998,-23.46371916631016],[-46.75484138899998,-23.46359583331012],[-46.75478249999998,-23.46357416631012],[-46.75468555599997,-23.46355166631012],[-46.75468583299994,-23.46345222231012],[-46.75469166699997,-23.46325833231014],[-46.75474166599997,-23.46325499931015]]],[[[-46.75416944399996,-23.46315194331015],[-46.75418944399996,-23.46316333231016],[-46.75396444499996,-23.46381888831016],[-46.75392361099995,-23.46379305531011],[-46.75387472199998,-23.46375888831016],[-46.75378194399997,-23.46368305431012],[-46.75367166699993,-23.46354972231016],[-46.75360916599993,-23.46345694331017],[-46.75354638899996,-23.46333527731013],[-46.75354916599997,-23.46324666531018],[-46.75356833399997,-23.46318777731016],[-46.75358861199993,-23.46316166631014],[-46.75363861099999,-23.46312749931013],[-46.75376861099994,-23.46308777731013],[-46.75380111099997,-23.46308611031014],[-46.75390527799993,-23.46309027731018],[-46.75400472199993,-23.46310527731014],[-46.75416944399996,-23.46315194331015]]],[[[-46.75284444399995,-23.46232638831016],[-46.75315527799995,-23.46081499931023],[-46.75321361099997,-23.46437749931013],[-46.75113777799999,-23.46688249931006],[-46.75284444399995,-23.46232638831016]]],[[[-46.75339861099997,-23.45964472131023],[-46.75366472199994,-23.45838805531025],[-46.75366888899998,-23.45843138831025],[-46.75366888899999,-23.45846694331026],[-46.75368694399998,-23.45852999931025],[-46.75369916699998,-23.45857666631024],[-46.75370611199997,-23.45865138831026],[-46.75376027799996,-23.45880388831026],[-46.75377472299993,-23.45882611031025],[-46.75378527799995,-23.45889694331024],[-46.75375861099997,-23.45890472131024],[-46.75378111099997,-23.45897055531024],[-46.75379722199995,-23.45902055431023],[-46.75381472299995,-23.45906555431023],[-46.75382722199998,-23.45910749931025],[-46.75383833299997,-23.45912888831024],[-46.75388694499998,-23.45918888731025],[-46.75391138899994,-23.45923027731024],[-46.75386444399993,-23.45929999931021],[-46.75384055599994,-23.45932694331022],[-46.75378916699998,-23.45937527631023],[-46.75373694499996,-23.45942305531022],[-46.75370833399995,-23.45944055531023],[-46.75368138899995,-23.45945611031024],[-46.75364583399994,-23.45947444431024],[-46.75360166699995,-23.45950305531024],[-46.75347694499993,-23.45959111031023],[-46.75339555599993,-23.45965083231023],[-46.75339861099997,-23.45964472131023]]]]}},{"type":"Feature","id":"terras-indigenas-025","properties":{"id":"terras-indigenas-025","nome":"Pakurity","nome_origem":"Pakurity","natureza":"camada fornecida para a demonstração","fonte_arquivo":"assets/layers/tis_poligonais/tis_poligonais_clipped.kml","terra_indigena":"Pakurity","etnia":"Guarani Mbya","municipios":"Canannia","superficie_ha":5730,"fase":"Declarada","modalidade":"Tradicionalmente ocupada","data_atualizacao":"03/04/2020"},"geometry":{"type":"MultiPolygon","coordinates":[[[[-47.97456173999996,-25.0437694692757],[-47.97804561999993,-25.04497774927563],[-47.98013006999997,-25.04759014927562],[-47.97769561999996,-25.04937824927557],[-47.97392243999997,-25.04896872927559],[-47.97387960999998,-25.05132081927554],[-47.97609250999994,-25.0519632692755],[-47.97536438999998,-25.05411905927546],[-47.97085292999998,-25.05473295927547],[-47.96878856999996,-25.05692604927543],[-47.96462825999998,-25.0529340892755],[-47.96125610999997,-25.05645935927543],[-47.95925663999998,-25.05424924927545],[-47.95155326999998,-25.05551008927542],[-47.95271699999995,-25.05238160927549],[-47.94940079999998,-25.04671213927563],[-47.94355837999996,-25.0435046692757],[-47.94016014999994,-25.04341121927569],[-47.94690030999993,-25.04092592927575],[-47.94551069999995,-25.03977335927578],[-47.94576578999994,-25.03712932927585],[-47.94772273999996,-25.0375711792758],[-47.94827807999997,-25.03954598927579],[-47.95200235999994,-25.03712144927584],[-47.94791938999998,-25.03484321927589],[-47.94830542999994,-25.03219428927594],[-47.95041900999996,-25.03333685927592],[-47.95053952999996,-25.03194917927596],[-47.94937220999998,-25.03168835927596],[-47.95059306999997,-25.030474649276],[-47.94844670999998,-25.02963418927601],[-47.94723684999997,-25.01329600927636],[-47.94409119999995,-25.01155058927637],[-47.94622305999997,-25.00673816927648],[-47.94744745999999,-25.00652289927646],[-47.94708465999997,-25.00785619927644],[-47.94901749999998,-25.00696946927646],[-47.94813651999994,-25.00884304927641],[-47.95024414999995,-25.00908127927645],[-47.95332694999996,-25.00554932927649],[-47.95714441999996,-25.00903359927643],[-47.95934194999995,-25.01647192927628],[-47.97199780999995,-25.02151810927614],[-47.97216937999998,-25.0423420292757],[-47.97457278999997,-25.04241639927575],[-47.97456173999996,-25.0437694692757]]],[[[-48.01582097999994,-25.12485313927401],[-48.01074551999994,-25.124079169274],[-48.01027452999995,-25.12302390927405],[-48.01200374999996,-25.12219913927405],[-48.01073532999993,-25.12219000927401],[-48.01019093999997,-25.12419186927398],[-48.01553074999998,-25.12698790927395],[-48.01537370999995,-25.12840130927392],[-48.01430224999996,-25.12836333927392],[-48.01248979999997,-25.12574582927398],[-48.01003680999998,-25.12606474927396],[-48.01050532999994,-25.12848696927393],[-48.01344634999997,-25.1292864692739],[-48.01302138999994,-25.13123248927385],[-48.01120582999994,-25.13015334927387],[-48.00985385999996,-25.13138585927385],[-48.01152135999997,-25.13422190927379],[-48.00302669999997,-25.13642209927373],[-47.99957933999997,-25.14091572927365],[-47.99450165999997,-25.1426790792736],[-47.97041023999998,-25.14342609927358],[-47.97097628999995,-25.14172386927365],[-47.96831482999994,-25.13870663927369],[-47.96974874999995,-25.13667256927376],[-47.96584613999994,-25.13519415927377],[-47.96520367999995,-25.1370501392737],[-47.96382929999999,-25.13626173927375],[-47.96332485999994,-25.13774652927371],[-47.96020300999993,-25.13831949927372],[-47.95877413999995,-25.13448459927378],[-47.95409135999995,-25.13669154927375],[-47.95432930999993,-25.13541377927377],[-47.95178327999998,-25.13434301927379],[-47.95696346999996,-25.12697085927396],[-47.95402482999998,-25.12755382927393],[-47.95142412999996,-25.12627094927393],[-47.94786064999993,-25.12824113927391],[-47.94461982999997,-25.12569701927398],[-47.94624737999994,-25.12314147927402],[-47.94353321999995,-25.12070178927404],[-47.94038533999998,-25.12171380927405],[-47.93683041999998,-25.11852294927411],[-47.93824381999996,-25.11582178927415],[-47.93572158999996,-25.11177479927429],[-47.94121814999994,-25.11010917927427],[-47.94156316999994,-25.10850303927432],[-47.93727459999997,-25.08813188927475],[-47.93919641999997,-25.08263900927491],[-47.93937462999997,-25.07701416927496],[-47.94567894999994,-25.07953417927492],[-47.94951301999998,-25.07919968927493],[-47.95477768999996,-25.08312181927488],[-47.96463342999994,-25.08416103927486],[-47.96929716999995,-25.08408965927485],[-47.97336078999996,-25.08143828927488],[-47.97604845999996,-25.08223595927487],[-47.99127442999998,-25.07953118927494],[-48.00350682999994,-25.08167450927491],[-48.00619787999995,-25.08555719927483],[-48.00717680999997,-25.09033264927469],[-48.00304641999998,-25.09413386927463],[-47.99685326999997,-25.09336106927465],[-47.99642468999997,-25.09179131927469],[-47.99827721999998,-25.08988126927474],[-47.99742179999998,-25.08863872927475],[-47.99329092999994,-25.08947824927474],[-47.99182145999998,-25.08844203927476],[-47.99394134999995,-25.09097901927471],[-47.99248938999995,-25.09183642927467],[-47.99297272999996,-25.09352166927466],[-47.99110851999996,-25.09359371927463],[-47.98975029999997,-25.09152062927467],[-47.98476800999998,-25.09268875927464],[-47.98199994999993,-25.09477075927462],[-47.98712058999996,-25.09248333927465],[-47.99315712999999,-25.09388250927463],[-47.99530424999995,-25.0909688992747],[-47.99581810999996,-25.09361844927463],[-47.99441660999997,-25.0941476692746],[-47.99560399999996,-25.0960706692746],[-47.99303347999995,-25.09625408927458],[-47.99648505999994,-25.09783940927454],[-47.99380123999998,-25.09935616927452],[-47.99590707999994,-25.09959259927449],[-47.99720794999995,-25.09739293927457],[-48.00161116999993,-25.09760828927459],[-48.00401140999998,-25.10226056927445],[-48.00412470999999,-25.09614208927459],[-48.01017003999993,-25.0948470592746],[-48.01162850999997,-25.09585681927457],[-48.00888017999996,-25.09716240927456],[-48.01027636999999,-25.09958827927453],[-48.01032631999993,-25.10385828927442],[-48.01030634999996,-25.09683385927456],[-48.02024808999993,-25.0995023092745],[-48.02123303999998,-25.10216436927448],[-48.02045012999998,-25.10491369927439],[-48.01859383999994,-25.10679004927438],[-48.01577314999997,-25.10642854927439],[-48.01518390999996,-25.10785140927435],[-48.01571537999997,-25.10935921927428],[-48.01793592999996,-25.10779606927434],[-48.02224271999995,-25.10845911927434],[-48.01783166999996,-25.11530998927418],[-48.02053950999994,-25.11565096927415],[-48.01996257999998,-25.11915141927413],[-48.01582097999994,-25.12485313927401]]]]}},{"type":"Feature","id":"terras-indigenas-026","properties":{"id":"terras-indigenas-026","nome":"Tapyi/Rio Branquinho","nome_origem":"Tapyi/Rio Branquinho","natureza":"camada fornecida para a demonstração","fonte_arquivo":"assets/layers/tis_poligonais/tis_poligonais_clipped.kml","terra_indigena":"Tapyi/Rio Branquinho","etnia":"Guarani Mbya","municipios":"Canannia","superficie_ha":1154,"fase":"Declarada","modalidade":"Tradicionalmente ocupada","data_atualizacao":"Não informada"},"geometry":{"type":"Polygon","coordinates":[[[-48.00462890999995,-24.91821679227834],[-48.01259335199995,-24.90504045627861],[-48.00641894999996,-24.90419641927864],[-48.00527323999995,-24.90302393927869],[-48.00575151099997,-24.90080354627871],[-48.01081619399997,-24.89949817327875],[-48.01452886899994,-24.90088045327871],[-48.02018868699997,-24.89885954127877],[-48.02557055099993,-24.90185611227869],[-48.03434581199998,-24.90404959527864],[-48.03653491499995,-24.9122468382785],[-48.03527380099996,-24.91647276027841],[-48.03791500199998,-24.91842391827835],[-48.03960203999998,-24.91762679927835],[-48.04381130699994,-24.91844057527836],[-48.04621456299998,-24.92103180727829],[-48.04726960099999,-24.9258715542782],[-48.04048244099994,-24.934397240278],[-48.03351299999997,-24.93767851727791],[-48.03100997899997,-24.94060333527791],[-48.02799740899997,-24.93752385227795],[-48.02151902099997,-24.93532701227798],[-48.02057581299994,-24.93188906427805],[-48.01537265199994,-24.92659677827818],[-48.01162452499995,-24.92712501827816],[-48.01098682999998,-24.9243757892782],[-48.00729676199996,-24.92127963527828],[-48.00806294799997,-24.91964732427834],[-48.00462890999995,-24.91821679227834]]]}},{"type":"Feature","id":"terras-indigenas-027","properties":{"id":"terras-indigenas-027","nome":"Guarani Araponga","nome_origem":"Guarani Araponga","natureza":"camada fornecida para a demonstração","fonte_arquivo":"assets/layers/tis_poligonais/tis_poligonais_clipped.kml","terra_indigena":"Guarani Araponga","etnia":"Guarani","municipios":"Paraty","superficie_ha":213.2033,"fase":"Regularizada","modalidade":"Tradicionalmente ocupada","data_atualizacao":"Não informada"},"geometry":{"type":"Polygon","coordinates":[[[-44.77867383299997,-23.31698343031348],[-44.77876809999998,-23.3144728993135],[-44.78138957199997,-23.31352544931351],[-44.77867383299997,-23.31698343031348]]]}},{"type":"Feature","id":"terras-indigenas-028","properties":{"id":"terras-indigenas-028","nome":"PiaLaguera","nome_origem":"PiaLaguera","natureza":"camada fornecida para a demonstração","fonte_arquivo":"assets/layers/tis_poligonais/tis_poligonais_clipped.kml","terra_indigena":"PiaLaguera","etnia":"Guarani Nhandeva","municipios":"Peruabe","superficie_ha":2773.7968,"fase":"Regularizada","modalidade":"Tradicionalmente ocupada","data_atualizacao":"24/04/2026"},"geometry":{"type":"MultiPolygon","coordinates":[[[[-46.90244788999996,-24.2518555392927],[-46.91002084099995,-24.25619354529261],[-46.90785816999995,-24.25245040229268],[-46.90583936799993,-24.25221959229267],[-46.90618168299994,-24.25109673629271],[-46.90513680299995,-24.25169247429271],[-46.90514118999995,-24.24984594929273],[-46.90351458999999,-24.24874668929276],[-46.90554700999997,-24.24913190929276],[-46.91507859999996,-24.24251053929289],[-46.94415551999998,-24.25997661929253],[-46.93997575999998,-24.26617377929239],[-46.93339144999993,-24.27123928929229],[-46.93144109999997,-24.26781451929233],[-46.92929964999996,-24.27106824929225],[-46.90066348999994,-24.25319404929264],[-46.90244788999996,-24.2518555392927]]],[[[-46.94341239999994,-24.25173154929267],[-46.94937571999998,-24.25878808929253],[-46.94712930999997,-24.26094530929249],[-46.91391395999995,-24.24094897929291],[-46.92792029999999,-24.23075525929317],[-46.92663022999994,-24.22697665929321],[-46.92706243999999,-24.22382468929331],[-46.92560728999996,-24.22268973929334],[-46.93524307999996,-24.21691962929345],[-46.93560600999997,-24.21507403929347],[-46.93343412999997,-24.21331480929351],[-46.93889349999995,-24.20195111929375],[-46.94846055999994,-24.19629135929392],[-46.94877660999998,-24.19383049929394],[-46.95146250999994,-24.192057119294],[-46.95415075999995,-24.19488892929391],[-46.96170665999995,-24.19399006929393],[-46.96681701999995,-24.20193537929378],[-46.96944018999994,-24.20432073929373],[-46.97471873999996,-24.2061251892937],[-46.97662015999998,-24.21139433929359],[-46.97546201999995,-24.21291057929355],[-46.96141730999994,-24.21714637929347],[-46.96288540999996,-24.22344856929331],[-46.96508562999998,-24.22517283929328],[-46.95182045999996,-24.24019772929297],[-46.95267092999995,-24.24238200929291],[-46.94651710999995,-24.24988555929272],[-46.94341239999994,-24.25173154929267]]]]}},{"type":"Feature","id":"terras-indigenas-029","properties":{"id":"terras-indigenas-029","nome":"Ka/aguy Hovy","nome_origem":"Ka/aguy Hovy","natureza":"camada fornecida para a demonstração","fonte_arquivo":"assets/layers/tis_poligonais/tis_poligonais_clipped.kml","terra_indigena":"Ka/aguy Hovy","etnia":"Guarany","municipios":"Iguape","superficie_ha":1950,"fase":"Declarada","modalidade":"Tradicionalmente ocupada","data_atualizacao":"05/08/2022"},"geometry":{"type":"Polygon","coordinates":[[[-47.44715826999993,-24.6567019892839],[-47.44157549999994,-24.65702726928393],[-47.43943175999993,-24.65580698928397],[-47.43195890099997,-24.66447900528378],[-47.42810324299995,-24.66277121828383],[-47.42271467999996,-24.66279435928382],[-47.42604046999997,-24.65570857928396],[-47.42716068999994,-24.65647610928396],[-47.42796111999996,-24.64863239928409],[-47.43342294999997,-24.64891096928411],[-47.43248781999995,-24.64788303928412],[-47.43350236999999,-24.64679109928416],[-47.43138728999998,-24.64516810928414],[-47.43233407999998,-24.64368183928421],[-47.44603038999998,-24.64311433928422],[-47.45792470999999,-24.64032132928428],[-47.45898091999993,-24.6447479692842],[-47.46032293999997,-24.64547965928421],[-47.45865255999997,-24.64709613928415],[-47.46227991999996,-24.64995434928409],[-47.46720647999996,-24.64564454928415],[-47.46937975999998,-24.64611211928414],[-47.46901212999995,-24.64961384928412],[-47.47088110999994,-24.65143032928407],[-47.47366364999993,-24.64859210928413],[-47.47622203999998,-24.64827801928411],[-47.47634577999998,-24.65231168928405],[-47.48166528999997,-24.654187279284],[-47.48657709999998,-24.66189173928379],[-47.49029285999995,-24.66409654928378],[-47.48940798999996,-24.66673135928374],[-47.49066434999997,-24.66813761928371],[-47.48595907999994,-24.67158900928359],[-47.48660514999995,-24.67532845928352],[-47.49889549999995,-24.67907859928347],[-47.50672400999997,-24.67471578928353],[-47.51227346999998,-24.67342700928358],[-47.52672146999999,-24.67371420928357],[-47.52960280999997,-24.6776545192835],[-47.53493971999995,-24.67900878928345],[-47.53447943999998,-24.67982303928346],[-47.53878779999997,-24.68180138928341],[-47.53822948999994,-24.68372127928333],[-47.53992365999994,-24.68532027928329],[-47.54277901999995,-24.68655378928328],[-47.54567243999998,-24.68558296928329],[-47.54593893999998,-24.68782917928324],[-47.54797688999997,-24.68922825928321],[-47.54600041999998,-24.69387971928311],[-47.54680222999998,-24.69954071928302],[-47.54457621999996,-24.70169006928294],[-47.53944112999994,-24.70135328928295],[-47.53641683999996,-24.69915704928302],[-47.53677928999997,-24.6956651492831],[-47.53541078999996,-24.6958823392831],[-47.53471598999995,-24.69372178928311],[-47.53484923999996,-24.68818240928327],[-47.53020452999993,-24.68807770928326],[-47.52635659999998,-24.68038559928344],[-47.52106831999999,-24.68143080928339],[-47.51558148999994,-24.68796643928327],[-47.50426998999995,-24.6853611392833],[-47.47585224999995,-24.68614367928328],[-47.47593484999993,-24.67946784928346],[-47.47337101999995,-24.67576677928351],[-47.47919897999999,-24.67322577928356],[-47.48335685999996,-24.66782641928372],[-47.47130612999997,-24.66224130928382],[-47.46446622999996,-24.66451126928374],[-47.45620597999994,-24.65910771928388],[-47.45424530999998,-24.6590886792839],[-47.44997499999994,-24.65498092928398],[-47.44715826999993,-24.6567019892839]]]}},{"type":"Feature","id":"terras-indigenas-030","properties":{"id":"terras-indigenas-030","nome":"Djaiko-Aty","nome_origem":"Djaiko-Aty","natureza":"camada fornecida para a demonstração","fonte_arquivo":"assets/layers/tis_poligonais/tis_poligonais_clipped.kml","terra_indigena":"Djaiko-Aty","etnia":"Guarani Nhandeva","municipios":"Miracatu","superficie_ha":1216,"fase":"Declarada","modalidade":"Tradicionalmente ocupada","data_atualizacao":"29/08/2016"},"geometry":{"type":"Polygon","coordinates":[[[-47.34266899699998,-24.2062036862937],[-47.34169949899996,-24.20715735429364],[-47.33813804099998,-24.20130233329378],[-47.33420738499996,-24.19991547529381],[-47.33405815299994,-24.20325820529373],[-47.32717590499993,-24.20968872629362],[-47.32674991399995,-24.20795233829367],[-47.32417183599995,-24.20892511829364],[-47.32198780899995,-24.20607410729368],[-47.31813990199999,-24.20609831829371],[-47.31834691499996,-24.20317158229377],[-47.31409957699998,-24.19993789429381],[-47.31108536999994,-24.20200721729377],[-47.30647399999998,-24.19935948729384],[-47.30374541399993,-24.19975043829383],[-47.30649192099997,-24.19384573229394],[-47.30310432899994,-24.190725612294],[-47.30453421699997,-24.18483358429418],[-47.30886031899996,-24.18576953029412],[-47.31395864799998,-24.18288800929419],[-47.31985395699997,-24.18541803229414],[-47.32111291699994,-24.18428776929418],[-47.32538464999993,-24.18459016829413],[-47.32688972199998,-24.18741686029411],[-47.33268293999998,-24.18950483529407],[-47.33552292199994,-24.18783086229405],[-47.34419847599998,-24.18913477129404],[-47.34671118599994,-24.18815443329409],[-47.34696343699994,-24.18992615829406],[-47.35006815099996,-24.192548694294],[-47.35471097399994,-24.19151265829401],[-47.35471413099998,-24.19374659329394],[-47.35748015499996,-24.19741972329386],[-47.36923688199994,-24.1994127902938],[-47.37208366999994,-24.20497739829372],[-47.37151259899997,-24.20869935129362],[-47.36847190199995,-24.21387394429349],[-47.36231644399993,-24.21039564529358],[-47.36103649499995,-24.21190415829359],[-47.35948964499995,-24.2114921002936],[-47.35638848299994,-24.20719456329367],[-47.35243607899997,-24.2094779132936],[-47.35174312399995,-24.20351120829373],[-47.34930732299995,-24.2087250442936],[-47.34548781199992,-24.20708797429369],[-47.34804090699998,-24.20251819329376],[-47.34529412399997,-24.20350641029378],[-47.34409011699996,-24.2062994212937],[-47.34266899699998,-24.2062036862937]]]}}]}
